INTELSAT 34 (IS-34)     
1 40874U 15039A   21213.16299397 -.00000284  00000-0  00000-0 0  9991
2 40874   0.0425 267.8329 0000656 103.0680 302.2684  1.00270527 21774
EUTELSAT 8 WEST B       
1 40875U 15039B   21214.13569069 -.00000063  00000-0  00000+0 0  9990
2 40875   0.0668 351.9850 0005128 111.8681 247.9341  1.00271249 21839
GSAT-6                  
1 40880U 15041A   21214.09168312 -.00000158  00000-0  00000+0 0  9995
2 40880   0.1227 277.8851 0004480 228.8048 279.7613  1.00273479 21775
INMARSAT 5-F3           
1 40882U 15042A   21213.81422633  .00000052  00000-0  00000-0 0  9999
2 40882   0.0242  80.0069 0000282 217.7654 125.5625  1.00269874 21713
MUOS-4                  
1 40887U 15044A   21214.15244000 -.00000088  00000-0  00000+0 0  9993
2 40887   2.6278 355.6946 0051483   1.8020  83.3742  1.00272395 21700
TJS-1                   
1 40892U 15046A   21213.88655389 -.00000155  00000-0  00000+0 0  9991
2 40892   0.0389 127.6172 0002053 303.4107 353.7841  1.00269732 21700
EXPRESS-AM8             
1 40895U 15048A   21214.20635179 -.00000109  00000-0  00000+0 0  9997
2 40895   0.0409 256.6807 0000085 196.0735 278.5408  1.00272426 21538
BEIDOU 20               
1 40938U 15053A   21214.17074794 -.00000119  00000-0  00000+0 0  9998
2 40938  51.9915 279.5397 0048517 193.9160 355.5604  1.00273392 21493
SKY MUSTER 1 (NBN1A)    
1 40940U 15054A   21213.87341153 -.00000277  00000-0  00000-0 0  9990
2 40940   0.0072  69.8495 0001626  61.4322 274.0879  1.00270135 21405
ARSAT 2                 
1 40941U 15054B   21214.04941437 -.00000222  00000-0  00000+0 0  9991
2 40941   0.0449 270.2500 0001677 214.6223 122.7642  1.00272500 21468
MORELOS 3               
1 40946U 15056A   21213.39696222 -.00000037  00000-0  00000-0 0  9999
2 40946   4.1833 331.0234 0003546 182.2256 186.7636  1.00272049 21436
APSTAR 9                
1 40982U 15059A   21213.27132892 -.00000265  00000-0  00000-0 0  9990
2 40982   0.0233 163.0636 0002268 319.4584  67.2331  1.00271012 21290
TURKSAT 4B              
1 40984U 15060A   21213.91716135  .00000117  00000-0  00000-0 0  9998
2 40984   0.0172  72.6977 0001928  73.2408 184.9332  1.00273734 21256
CHINASAT 2C (ZX 2C)     
1 41021U 15063A   21213.73869058 -.00000322  00000-0  00000-0 0  9996
2 41021   0.0438 255.3359 0001714 203.2445 221.3338  1.00271259 21158
GSAT-15                 
1 41028U 15065A   21213.94007986 -.00000256  00000-0  00000-0 0  9998
2 41028   0.1188 277.7280 0002942 179.1943 285.7451  1.00270897 20951
BADR-7 (ARABSAT-6B)     
1 41029U 15065B   21214.07069994  .00000147  00000-0  00000+0 0  9998
2 41029   0.0575 255.7031 0005441 316.0777 150.5375  1.00275869 21066
LAOSAT 1                
1 41034U 15067A   21213.99216171 -.00000341  00000-0  00000+0 0  9994
2 41034   0.0232 188.5618 0000983 304.5060 303.3895  1.00269248 20999
TELSTAR 12V             
1 41036U 15068A   21213.84720150 -.00000117  00000-0  00000+0 0  9999
2 41036   0.0202  73.9435 0001804  79.1165  87.5859  1.00269458 20877
CHINASAT 1C (ZX 1C)     
1 41103U 15073A   21213.72287964 -.00000151  00000-0  00000-0 0  9997
2 41103   2.6033  88.5131 0002339  17.8046 185.8436  1.00272418 20804
ELEKTRO-L 2             
1 41105U 15074A   21213.91908391 -.00000116  00000-0  00000-0 0  9996
2 41105   2.1917  91.9775 0002724  56.1336 118.9240  1.00270077 20663
COSMOS 2513             
1 41121U 15075A   21214.15331236 -.00000136  00000-0  00000+0 0  9991
2 41121   0.0514 115.0458 0002361  31.2511 300.0940  1.00273419 20757
EXPRESS-AMU1            
1 41191U 15082A   21214.06715896  .00000158  00000-0  00000+0 0  9997
2 41191   0.0144  94.3342 0002792  49.9091 226.8796  1.00273391 20664
GAOFEN 4                
1 41194U 15083A   21213.87127862 -.00000332  00000-0  00000-0 0  9995
2 41194   0.0377 249.6220 0001869 302.3120 178.1039  1.00268822 20648
BELINTERSAT-1           
1 41238U 16001A   21214.07271591  .00000109  00000-0  00000+0 0  9997
2 41238   0.0158 272.5604 0001505 196.3976 279.5822  1.00272572 20409
IRNSS-1E                
1 41241U 16003A   21213.58938309 -.00000316  00000-0  00000-0 0  9997
2 41241  29.2696  89.6436 0019320 176.3881   8.3132  1.00275294 20226
EUTELSAT 9B             
1 41310U 16005A   21213.92826992  .00000064  00000-0  00000-0 0  9997
2 41310   0.0493  74.0499 0002693 162.6432  57.1958  1.00271319 20263
SES-9                   
1 41380U 16013A   21213.93452278 -.00000343  00000-0  00000-0 0  9997
2 41380   0.0508 268.6669 0001790 199.8690 286.9316  1.00270750 19583
EUTELSAT 65 WEST A      
1 41382U 16014A   21213.83725661 -.00000274  00000-0  00000-0 0  9991
2 41382   0.0485  30.5137 0001758  99.9578  56.3820  1.00270860 19697
IRNSS-1F                
1 41384U 16015A   21213.85671022  .00000162  00000-0  00000+0 0  9991
2 41384   1.9529 183.7366 0018470 191.2144 276.6758  1.00279431 19822
BEIDOU IGSO-6           
1 41434U 16021A   21214.02043850 -.00000142  00000-0  00000+0 0  9995
2 41434  57.6221  56.1631 0038469 211.1383 145.5601  1.00260337 19624
IRNSS-1G                
1 41469U 16027A   21213.89205771 -.00000333  00000-0  00000-0 0  9998
2 41469   1.9266 187.3294 0005025 280.2587 293.6846  1.00277531 19327
JCSAT-2B                
1 41471U 16028A   21213.85674277 -.00000163  00000-0  00000+0 0  9999
2 41471   0.0187  83.1931 0001921  52.7964 277.1036  1.00271313 19235
THAICOM 8               
1 41552U 16031A   21214.08116826 -.00000119  00000-0  00000+0 0  9991
2 41552   0.0810  79.9031 0003265  12.3673 326.3966  1.00271775 18931
INTELSAT 31 (IS-31)     
1 41581U 16035A   21212.43206571 -.00000152  00000-0  00000-0 0  9999
2 41581   0.0291 218.1208 0001457   7.8609 143.7582  1.00273417 18736
BEIDOU-2 G7             
1 41586U 16037A   21214.15562411 -.00000353  00000-0  00000+0 0  9997
2 41586   1.7945  68.1442 0008347  19.3721  29.9814  1.00270929 18936
ABS-2A (MONGOLSAT-1)    
1 41588U 16038A   21213.86508487 -.00000082  00000-0  00000-0 0  9990
2 41588   0.0100  84.5179 0001833 316.1287 296.1509  1.00271664 18857
EUTELSAT 117 WEST B     
1 41589U 16038B   21213.45396609 -.00000009  00000-0  00000-0 0  9996
2 41589   0.0063 190.5613 0000439 226.1370 300.0014  1.00267820 18812
BRISAT                  
1 41591U 16039A   21214.16735735 -.00000194  00000-0  00000+0 0  9990
2 41591   0.0099  65.9822 0001992  69.9256  25.8189  1.00271649 18798
ECHOSTAR 18             
1 41592U 16039B   21213.40734330 -.00000280  00000-0  00000-0 0  9994
2 41592   0.0185  87.3599 0001442  54.2829 253.8541  1.00271021 18774
MUOS-5                  
1 41622U 16041A   21214.07020184 -.00000137  00000-0  00000+0 0  9990
2 41622   6.3470 303.5548 0203350 227.0885  60.5092  1.00272819 19215
TIANTONG-1 1            
1 41725U 16048A   21214.08579177 -.00000312  00000-0  00000+0 0  9998
2 41725   2.4951 345.1891 0002627 131.3368 326.6167  1.00268816 18412
JCSAT-16                
1 41729U 16050A   21213.87341153 -.00000295  00000-0  00000+0 0  9992
2 41729   0.0751  92.9304 0000223 109.4592 196.9472  1.00414417 18214
USA 271                 
1 41745U 16052B   21211.43428510 -.00000364  00000-0  00000+0 0  9992
2 41745   1.0455  95.9289 0000469 124.7096   6.5498  1.00082083   866
INTELSAT 36 (IS-36)     
1 41747U 16053A   21213.86173022 -.00000022  00000-0  00000-0 0  9991
2 41747   0.0085  26.9918 0002845 346.1571 316.2286  1.00271893 18119
INTELSAT 33E (IS-33E)   
1 41748U 16053B   21214.14929951  .00000052  00000-0  00000+0 0  9995
2 41748   0.0206   6.3642 0001720 135.8303 282.4836  1.00272041 18377
INSAT-3DR               
1 41752U 16054A   21214.08029590 -.00000075  00000-0  00000+0 0  9990
2 41752   0.1085  99.2921 0010019 165.1441 149.3439  1.00271851 17950
GSAT-18                 
1 41793U 16060A   21214.08029590 -.00000075  00000-0  00000+0 0  9992
2 41793   0.0818  98.4253 0002339 333.5552 341.7937  1.00272237 17687
SKY MUSTER 2 (NBN1B)    
1 41794U 16060B   21213.98105016 -.00000242  00000-0  00000+0 0  9995
2 41794   0.0029 259.0112 0001382 229.8200 319.9249  1.00270859 17721
HIMAWARI-9              
1 41836U 16064A   21213.87341153 -.00000273  00000-0  00000-0 0  9993
2 41836   0.0140  77.4886 0000301  77.2341 251.1263  1.00270586 17330
SHIJIAN-17 (SJ-17)      
1 41838U 16065A   21213.91646792 -.00000362  00000-0  00000-0 0  9997
2 41838   1.2315  92.7103 0003312  29.3389 276.1046  1.00275415 17350
GOES 16                 
1 41866U 16071A   21213.40455174 -.00000247  00000-0  00000-0 0  9993
2 41866   0.1080 101.4670 0001405  70.2261 208.9412  1.00270721 17254
TIANLIAN 1-04           
1 41869U 16072A   21213.81361567  .00000034  00000-0  00000+0 0  9996
2 41869   0.1900 263.9822 0025383 205.3379 311.0343  1.00274237 17450
WGS F8 (USA 272)        
1 41879U 16075A   21214.16718288 -.00000200  00000-0  00000+0 0  9991
2 41879   0.0160  60.1992 0000276  42.7928  57.9782  1.00270485 17072
FENGYUN 4A              
1 41882U 16077A   21213.94281209 -.00000327  00000-0  00000-0 0  9991
2 41882   0.0815  83.4395 0002194  52.1346 259.1545  1.00265360 17134
ECHOSTAR 19             
1 41893U 16079A   21213.83088840 -.00000136  00000-0  00000-0 0  9997
2 41893   0.0130  95.5449 0001241  45.4913  11.6256  1.00271126 16852
JCSAT-15                
1 41903U 16082A   21213.93452278 -.00000349  00000-0  00000-0 0  9990
2 41903   0.0174  86.7848 0001311  54.9973 255.4543  1.00271479 16900
STAR ONE D1             
1 41904U 16082B   21214.05084675 -.00000209  00000-0  00000+0 0  9991
2 41904   0.0120  45.0256 0002516  92.8319 107.3052  1.00272767 16930
TJS-2                   
1 41911U 17001A   21214.08838308 -.00000003  00000-0  00000+0 0  9996
2 41911   0.4354 282.8928 0005593 254.7342 231.5566  1.00270689 16875
SBIRS GEO-4 (USA 273)   
1 41937U 17004A   21214.10550708  .00000136  00000-0  00000+0 0  9991
2 41937   2.9667 313.9906 0002245 185.2546  50.2431  1.00273138 16749
HISPASAT 36W-1          
1 41942U 17006A   21213.84301418 -.00000242  00000-0  00000-0 0  9991
2 41942   0.0148 315.7777 0000977 175.9206  86.4419  1.00273573 16383
